SHIYAN-6 01 (SY-6 01)   
1 43711U 18094B   26178.82493855  .00004800  00000+0  16863-3 0  9994
2 43711  97.3587 192.8578 0014656 109.2677 251.0150 15.29763445423112
MOHAMMED VI-B           
1 43717U 18095A   26178.94775050  .00000309  00000+0  51016-4 0  9994
2 43717  97.9560 251.1250 0001533  97.5119 262.6266 14.77059778409772
HYSIS                   
1 43719U 18096A   26178.97119685  .00000977  00000+0  14043-3 0  9995
2 43719  97.9841 245.6347 0001861  92.1678 267.9746 14.78637728409012
COSMOS 2530 (RODNIK-S *)
1 43751U 18097A   26178.92188556  .00000207  00000+0  14211-2 0  9992
2 43751  82.5134 215.6185 0019747  16.8153 343.3577 12.42881914343625
COSMOS 2531 (RODNIK-S *)
1 43752U 18097B   26178.94389720  .00000087  00000+0  55691-3 0  9995
2 43752  82.5181 216.6670 0017332  35.9675 324.2567 12.42912862343643
COSMOS 2532 (RODNIK-S *)
1 43753U 18097C   26178.97219477  .00000170  00000+0  11542-2 0  9999
2 43753  82.5123 215.4305 0018764  37.6951 322.5440 12.42910519343613
MINXSS-2                
1 43758U 18099A   26178.89235394  .00036287  00000+0  70242-3 0  9994
2 43758  97.4540 255.4944 0007571 215.1894 144.8857 15.47618857415785
SIRION PATHFINDER-2     
1 43759U 18099B   26178.68632502  .00004972  00000+0  27240-3 0  9990
2 43759  97.4250 227.4940 0007158 259.9312 100.1112 15.14637514414212
STPSAT-5                
1 43762U 18099E   26178.87173799  .00004729  00000+0  26559-3 0  9995
2 43762  97.4085 228.3653 0001622 319.6165  40.4947 15.13784355414489
POLAR SCOUT KODIAK      
1 43764U 18099G   26178.74910531  .00235818  00000+0  10998-2 0  9990
2 43764  97.4151 263.3109 0007765 204.0891 156.0015 15.82655331416600
HAWK-A                  
1 43765U 18099H   26178.71748045  .00006078  00000+0  24449-3 0  9998
2 43765  97.3913 230.8162 0033240 246.8838 112.8896 15.24761192414701
SPAWAR-CAL-O            
1 43766U 18099J   26178.16909199  .00020719  00000+0  60170-3 0  9996
2 43766  97.4332 242.2318 0006835 244.7024 115.3512 15.35496125415057
CORVUS BC4              
1 43767U 18099K   26178.90562209  .00003943  00000+0  22956-3 0  9996
2 43767  97.4062 221.5720 0007122 334.9531  25.1353 15.12577306414023
AISTECHSAT 2            
1 43768U 18099L   26178.91740082  .00005047  00000+0  26956-3 0  9996
2 43768  97.4291 226.7166 0003060 251.9177 108.1723 15.15553092413908
FOX-1CLIFF (AO-95)      
1 43770U 18099N   26178.82592778  .00010662  00000+0  40555-3 0  9996
2 43770  97.4387 239.0337 0007071 315.3143  44.7526 15.26929261414845
RANGE-A                 
1 43773U 18099R   26178.42617974  .00004379  00000+0  24820-3 0  9996
2 43773  97.3963 220.7056 0008855 318.5886  41.4673 15.13471224414048
SPAWAR-CAL-R            
1 43776U 18099U   26178.84990051  .00002333  00000+0  16493-3 0  9990
2 43776  97.4379 218.8771 0018937 328.1314  31.8766 15.05694779413600
SPAWAR-CAL-OR           
1 43778U 18099W   26178.56407374  .00008871  00000+0  37398-3 0  9992
2 43778  97.3794 226.6403 0009567 279.1354  80.8800 15.23512001414239
SNUSAT-2                
1 43782U 18099AA  26178.72166001  .00007592  00000+0  33526-3 0  9992
2 43782  97.4058 231.9436 0008670 254.2739 105.7541 15.21990195414633
KAZSTSAT                
1 43783U 18099AB  26178.63827080  .00001919  00000+0  15917-3 0  9995
2 43783  97.4290 210.0926 0008544  41.0079 319.1786 14.99901651412872
SNUGLITE                
1 43784U 18099AC  26178.88862527  .00011614  00000+0  43541-3 0  9995
2 43784  97.3869 233.0639 0001807 216.1384 143.9734 15.27404009414953
ITASAT                  
1 43786U 18099AE  26178.89018809  .00006980  00000+0  33444-3 0  9995
2 43786  97.4027 230.1884 0011104 320.0508  39.9908 15.19184666414532
EAGLET-I                
1 43790U 18099AJ  26178.89926951  .00004036  00000+0  23194-3 0  9997
2 43790  97.4227 228.2841 0009742 313.9557  46.0870 15.13014927413958
ESEO                    
1 43792U 18099AL  26178.82344766  .00001277  00000+0  95879-4 0  9994
2 43792  97.3972 215.7568 0010184 302.3139  57.7101 15.04280033413402
HAWK-B                  
1 43794U 18099AN  26178.88299805  .00006021  00000+0  25641-3 0  9996
2 43794  97.3961 230.3722 0030255 265.2299  94.5482 15.22936087414669
THEA                    
1 43796U 18099AQ  26178.63116038  .00017141  00000+0  50066-3 0  9991
2 43796  97.4447 248.4262 0006471 237.6828 122.3790 15.35357554414295
SKYSAT-C12              
1 43797U 18099AR  26178.55948136  .00017078  00000+0  31426-3 0  9993
2 43797  96.9251 201.3809 0006211 110.6471 249.5448 15.49225188423467
ASTROCAST 0.1           
1 43798U 18099AS  26178.78529139  .00033930  00000+0  59966-3 0  9991
2 43798  97.4380 257.6169 0005651 173.4630 186.6697 15.50256343416076
HAWK-C                  
1 43799U 18099AT  26178.93203868  .00007306  00000+0  26233-3 0  9996
2 43799  97.3888 231.9932 0038878 246.0530 113.6636 15.28248532415556
ICEYE-X2                
1 43800U 18099AU  26178.95377882  .00005902  00000+0  29462-3 0  9996
2 43800  97.4361 232.6055 0008487 262.3726  97.6544 15.17846159414455
