OBJECT_NAME,OBJECT_ID,EPOCH,MEAN_MOTION,ECCENTRICITY,INCLINATION,RA_OF_ASC_NODE,ARG_OF_PERICENTER,MEAN_ANOMALY,EPHEMERIS_TYPE,CLASSIFICATION_TYPE,NORAD_CAT_ID,ELEMENT_SET_NO,REV_AT_EPOCH,BSTAR,MEAN_MOTION_DOT,MEAN_MOTION_DDOT
SHIYAN-6 01 (SY-6 01),2018-094B,2026-06-27T19:47:54.690720,15.29763445,.00146567,97.3587,192.8578,109.2677,251.0150,0,U,43711,999,42311,.16863098E-3,.48E-4,0
MOHAMMED VI-B,2018-095A,2026-06-27T22:44:45.643200,14.77059778,.00015336,97.9560,251.1250,97.5119,262.6266,0,U,43717,999,40977,.51016442E-4,.309E-5,0
HYSIS,2018-096A,2026-06-27T23:18:31.407840,14.78637728,.00018617,97.9841,245.6347,92.1678,267.9746,0,U,43719,999,40901,.14042564E-3,.977E-5,0
COSMOS 2530 (RODNIK-S 16),2018-097A,2026-06-27T22:07:30.912384,12.42881914,.00197479,82.5134,215.6185,16.8153,343.3577,0,U,43751,999,34362,.14211115E-2,.207E-5,0
COSMOS 2531 (RODNIK-S 17),2018-097B,2026-06-27T22:39:12.718080,12.42912862,.00173321,82.5181,216.6670,35.9675,324.2567,0,U,43752,999,34364,.55691018E-3,.87E-6,0
COSMOS 2532 (RODNIK-S 18),2018-097C,2026-06-27T23:19:57.628128,12.42910519,.00187648,82.5123,215.4305,37.6951,322.5440,0,U,43753,999,34361,.11542358E-2,.17E-5,0
MINXSS-2,2018-099A,2026-06-27T21:24:59.380416,15.47618857,.00075713,97.4540,255.4944,215.1894,144.8857,0,U,43758,999,41578,.70241975E-3,.36287E-3,0
SIRION PATHFINDER-2,2018-099B,2026-06-27T16:28:18.481728,15.14637514,.00071587,97.4250,227.4940,259.9312,100.1112,0,U,43759,999,41421,.2723972E-3,.4972E-4,0
STPSAT-5,2018-099E,2026-06-27T20:55:18.162336,15.13784355,.00016228,97.4085,228.3653,319.6165,40.4947,0,U,43762,999,41448,.265592E-3,.4729E-4,0
POLAR SCOUT KODIAK,2018-099G,2026-06-27T17:58:42.698784,15.82655331,.00077656,97.4151,263.3109,204.0891,156.0015,0,U,43764,999,41660,.10998025E-2,.235818E-2,0
HAWK-A,2018-099H,2026-06-27T17:13:10.310880,15.24761192,.00332403,97.3913,230.8162,246.8838,112.8896,0,U,43765,999,41470,.24448903E-3,.6078E-4,0
SPAWAR-CAL-O,2018-099J,2026-06-27T04:03:29.547936,15.35496125,.00068358,97.4332,242.2318,244.7024,115.3512,0,U,43766,999,41505,.60169761E-3,.20719E-3,0
CORVUS BC4,2018-099K,2026-06-27T21:44:05.748576,15.12577306,.00071225,97.4062,221.5720,334.9531,25.1353,0,U,43767,999,41402,.229557E-3,.3943E-4,0
AISTECHSAT 2,2018-099L,2026-06-27T22:01:03.430848,15.15553092,.00030601,97.4291,226.7166,251.9177,108.1723,0,U,43768,999,41390,.26955615E-3,.5047E-4,0
FOX-1CLIFF (AO-95),2018-099N,2026-06-27T19:49:20.160192,15.26929261,.0007071,97.4387,239.0337,315.3143,44.7526,0,U,43770,999,41484,.40555147E-3,.10662E-3,0
RANGE-A,2018-099R,2026-06-27T10:13:41.929536,15.13471224,.0008855,97.3963,220.7056,318.5886,41.4673,0,U,43773,999,41404,.24819752E-3,.4379E-4,0
SPAWAR-CAL-R,2018-099U,2026-06-27T20:23:51.404064,15.05694779,.00189376,97.4379,218.8771,328.1314,31.8766,0,U,43776,999,41360,.16492789E-3,.2333E-4,0
SPAWAR-CAL-OR,2018-099W,2026-06-27T13:32:15.971136,15.23512001,.00095671,97.3794,226.6403,279.1354,80.8800,0,U,43778,999,41423,.37397734E-3,.8871E-4,0
SNUSAT-2,2018-099AA,2026-06-27T17:19:11.424864,15.21990195,.00086702,97.4058,231.9436,254.2739,105.7541,0,U,43782,999,41463,.33525618E-3,.7592E-4,0
KAZSTSAT,2018-099AB,2026-06-27T15:19:06.597120,14.99901651,.00085447,97.4290,210.0926,41.0079,319.1786,0,U,43783,999,41287,.1591701E-3,.1919E-4,0
SNUGLITE,2018-099AC,2026-06-27T21:19:37.223328,15.27404009,.00018076,97.3869,233.0639,216.1384,143.9734,0,U,43784,999,41495,.43541167E-3,.11614E-3,0
ITASAT,2018-099AE,2026-06-27T21:21:52.250976,15.19184666,.00111047,97.4027,230.1884,320.0508,39.9908,0,U,43786,999,41453,.33444275E-3,.698E-4,0
EAGLET-I,2018-099AJ,2026-06-27T21:34:56.885664,15.13014927,.00097426,97.4227,228.2841,313.9557,46.0870,0,U,43790,999,41395,.23193747E-3,.4036E-4,0
ESEO,2018-099AL,2026-06-27T19:45:45.877824,15.04280033,.00101848,97.3972,215.7568,302.3139,57.7101,0,U,43792,999,41340,.95879233E-4,.1277E-4,0
HAWK-B,2018-099AN,2026-06-27T21:11:31.031520,15.22936087,.00302558,97.3961,230.3722,265.2299,94.5482,0,U,43794,999,41466,.25640539E-3,.6021E-4,0
THEA,2018-099AQ,2026-06-27T15:08:52.256832,15.35357554,.00064712,97.4447,248.4262,237.6828,122.3790,0,U,43796,999,41429,.5006572E-3,.17141E-3,0
SKYSAT-C12,2018-099AR,2026-06-27T13:25:39.189504,15.49225188,.00062119,96.9251,201.3809,110.6471,249.5448,0,U,43797,999,42346,.31426326E-3,.17078E-3,0
ASTROCAST 0.1,2018-099AS,2026-06-27T18:50:49.176096,15.50256343,.0005651,97.4380,257.6169,173.4630,186.6697,0,U,43798,999,41607,.59966383E-3,.3393E-3,0
HAWK-C,2018-099AT,2026-06-27T22:22:08.141952,15.28248532,.00388783,97.3888,231.9932,246.0530,113.6636,0,U,43799,999,41555,.26232962E-3,.7306E-4,0
ICEYE-X2,2018-099AU,2026-06-27T22:53:26.490048,15.17846159,.0008487,97.4361,232.6055,262.3726,97.6544,0,U,43800,999,41445,.29461954E-3,.5902E-4,0
